{"type": "FeatureCollection", "features": [ {"type": "Feature", "properties": {"norad_id": 28649, "name": "IRS-P5 (CARTOSAT-1)", "group": "resource", "lat": -11.47971313055387, "lon": -174.24986047581612, "alt_km": 602.0878675433132, "timestamp": "2025-12-06T14:35:36.783911+00:00", "meta": {"OBJECT_NAME": "IRS-P5 (CARTOSAT-1)", "OBJECT_ID": "2005-017A", "EPOCH": "2025-12-06T00:50:47.654592", "MEAN_MOTION": 14.90370093, "ECCENTRICITY": 0.00016534, "INCLINATION": 97.5495, "RA_OF_ASC_NODE": 6.7461, "ARG_OF_PERICENTER": 51.3349, "MEAN_ANOMALY": 308.8017, "EPHEMERIS_TYPE": 0, "CLASSIFICATION_TYPE": "U", "NORAD_CAT_ID": 28649, "ELEMENT_SET_NO": 999, "REV_AT_EPOCH": 11504, "BSTAR": 0.00035999589, "MEAN_MOTION_DOT": 3.451e-05, "MEAN_MOTION_DDOT": 0}, "tle": {"line1": "1 28649U 05017A   25340.03527378  .00003451  00000+0  36000-3 0  9995", "line2": "2 28649  97.5495   6.7461 0001653  51.3349 308.8017 14.90370093115048"}}, "geometry": {"type": "Point", "coordinates": [-174.24986047581612, -11.47971313055387]}}, {"type": "Feature", "properties": {"norad_id": 28893, "name": "SINAH 1", "group": "resource", "lat": 46.22880017356343, "lon": 100.42710042385798, "alt_km": 679.7200276493004, "timestamp": "2025-12-06T14:35:36.783922+00:00", "meta": {"OBJECT_NAME": "SINAH 1", "OBJECT_ID": "2005-043D", "EPOCH": "2025-12-06T07:49:05.922336", "MEAN_MOTION": 14.63951553, "ECCENTRICITY": 0.00149841, "INCLINATION": 98.2601, "RA_OF_ASC_NODE": 108.866, "ARG_OF_PERICENTER": 156.1689, "MEAN_ANOMALY": 204.021, "EPHEMERIS_TYPE": 0, "CLASSIFICATION_TYPE": "U", "NORAD_CAT_ID": 28893, "ELEMENT_SET_NO": 999, "REV_AT_EPOCH": 7230, "BSTAR": 0.00020288129, "MEAN_MOTION_DOT": 1.015e-05, "MEAN_MOTION_DDOT": 0}, "tle": {"line1": "1 28893U 05043D   25340.32576299  .00001015  00000+0  20288-3 0  9998", "line2": "2 28893  98.2601 108.8660 0014984 156.1689 204.0210 14.63951553 72302"}}, "geometry": {"type": "Point", "coordinates": [100.42710042385798, 46.22880017356343]}}, {"type": "Feature", "properties": {"norad_id": 29079, "name": "EROS B", "group": "resource", "lat": -54.820506415922644, "lon": 107.45126122601994, "alt_km": 376.93321550717883, "timestamp": "2025-12-06T14:35:36.783933+00:00", "meta": {"OBJECT_NAME": "EROS B", "OBJECT_ID": "2006-014A", "EPOCH": "2025-12-06T07:09:41.740992", "MEAN_MOTION": 15.65804768, "ECCENTRICITY": 0.00017322, "INCLINATION": 97.3488, "RA_OF_ASC_NODE": 96.5778, "ARG_OF_PERICENTER": 253.3413, "MEAN_ANOMALY": 106.7657, "EPHEMERIS_TYPE": 0, "CLASSIFICATION_TYPE": "U", "NORAD_CAT_ID": 29079, "ELEMENT_SET_NO": 999, "REV_AT_EPOCH": 8979, "BSTAR": 0.001931598, "MEAN_MOTION_DOT": 0.00199852, "MEAN_MOTION_DDOT": 0}, "tle": {"line1": "1 29079U 06014A   25340.29839978  .00199852  00000+0  19316-2 0  9992", "line2": "2 29079  97.3488  96.5778 0001732 253.3413 106.7657 15.65804768 89799"}}, "geometry": {"type": "Point", "coordinates": [107.45126122601994, -54.820506415922644]}}, {"type": "Feature", "properties": {"norad_id": 29228, "name": "RESURS-DK 1", "group": "resource", "lat": -21.20090508121424, "lon": 109.53235227847297, "alt_km": 533.0768298298835, "timestamp": "2025-12-06T14:35:36.783944+00:00", "meta": {"OBJECT_NAME": "RESURS-DK 1", "OBJECT_ID": "2006-021A", "EPOCH": "2025-12-05T19:38:30.099552", "MEAN_MOTION": 15.12100582, "ECCENTRICITY": 0.00077897, "INCLINATION": 69.9338, "RA_OF_ASC_NODE": 119.7231, "ARG_OF_PERICENTER": 263.9017, "MEAN_ANOMALY": 96.1261, "EPHEMERIS_TYPE": 0, "CLASSIFICATION_TYPE": "U", "NORAD_CAT_ID": 29228, "ELEMENT_SET_NO": 999, "REV_AT_EPOCH": 7333, "BSTAR": 0.00031090969, "MEAN_MOTION_DOT": 5.264e-05, "MEAN_MOTION_DDOT": 0}, "tle": {"line1": "1 29228U 06021A   25339.81840393  .00005264  00000+0  31091-3 0  9993", "line2": "2 29228  69.9338 119.7231 0007789 263.9017  96.1261 15.12100582 73332"}}, "geometry": {"type": "Point", "coordinates": [109.53235227847297, -21.20090508121424]}}, {"type": "Feature", "properties": {"norad_id": 29268, "name": "ARIRANG-2 (KOMPSAT-2)", "group": "resource", "lat": -58.199627352989786, "lon": -177.8022406496484, "alt_km": 677.2695199822938, "timestamp": "2025-12-06T14:35:36.783955+00:00", "meta": {"OBJECT_NAME": "ARIRANG-2 (KOMPSAT-2)", "OBJECT_ID": "2006-031A", "EPOCH": "2025-12-06T07:27:02.001312", "MEAN_MOTION": 14.6448516, "ECCENTRICITY": 0.00138205, "INCLINATION": 97.8271, "RA_OF_ASC_NODE": 169.0969, "ARG_OF_PERICENTER": 330.4884, "MEAN_ANOMALY": 202.3961, "EPHEMERIS_TYPE": 0, "CLASSIFICATION_TYPE": "U", "NORAD_CAT_ID": 29268, "ELEMENT_SET_NO": 999, "REV_AT_EPOCH": 3324, "BSTAR": 0.00015745066, "MEAN_MOTION_DOT": 7.9e-06, "MEAN_MOTION_DDOT": 0}, "tle": {"line1": "1 29268U 06031A   25340.31043983  .00000790  00000+0  15745-3 0  9992", "line2": "2 29268  97.8271 169.0969 0013820 330.4884 202.3961 14.64485160 33241"}}, "geometry": {"type": "Point", "coordinates": [-177.8022406496484, -58.199627352989786]}}, {"type": "Feature", "properties": {"norad_id": 29709, "name": "LAPAN-TUBSAT", "group": "resource", "lat": 50.37475755388377, "lon": 160.5741535408934, "alt_km": 599.2560678815344, "timestamp": "2025-12-06T14:35:36.783966+00:00", "meta": {"OBJECT_NAME": "LAPAN-TUBSAT", "OBJECT_ID": "2007-001A", "EPOCH": "2025-12-06T05:56:04.288704", "MEAN_MOTION": 14.85655968, "ECCENTRICITY": 0.00136364, "INCLINATION": 98.1251, "RA_OF_ASC_NODE": 330.2705, "ARG_OF_PERICENTER": 93.467, "MEAN_ANOMALY": 266.8105, "EPHEMERIS_TYPE": 0, "CLASSIFICATION_TYPE": "U", "NORAD_CAT_ID": 29709, "ELEMENT_SET_NO": 999, "REV_AT_EPOCH": 2250, "BSTAR": 0.00016072693, "MEAN_MOTION_DOT": 1.337e-05, "MEAN_MOTION_DDOT": 0}, "tle": {"line1": "1 29709U 07001A   25340.24727186  .00001337  00000+0  16073-3 0  9999", "line2": "2 29709  98.1251 330.2705 0013636  93.4670 266.8105 14.85655968 22507"}}, "geometry": {"type": "Point", "coordinates": [160.5741535408934, 50.37475755388377]}}, {"type": "Feature", "properties": {"norad_id": 31113, "name": "HAIYANG-1B", "group": "resource", "lat": 39.59517051793977, "lon": 152.10097624077414, "alt_km": 784.5033388198444, "timestamp": "2025-12-06T14:35:36.783976+00:00", "meta": {"OBJECT_NAME": "HAIYANG-1B", "OBJECT_ID": "2007-010A", "EPOCH": "2025-12-06T05:33:10.720512", "MEAN_MOTION": 14.30961622, "ECCENTRICITY": 0.00145223, "INCLINATION": 98.3309, "RA_OF_ASC_NODE": 324.7786, "ARG_OF_PERICENTER": 56.035, "MEAN_ANOMALY": 304.2212, "EPHEMERIS_TYPE": 0, "CLASSIFICATION_TYPE": "U", "NORAD_CAT_ID": 31113, "ELEMENT_SET_NO": 999, "REV_AT_EPOCH": 97303, "BSTAR": 0.00010628393, "MEAN_MOTION_DOT": 2.38e-06, "MEAN_MOTION_DDOT": 0}, "tle": {"line1": "1 31113U 07010A   25340.23137408  .00000238  00000+0  10628-3 0  9991", "line2": "2 31113  98.3309 324.7786 0014522  56.0350 304.2212 14.30961622973033"}}, "geometry": {"type": "Point", "coordinates": [152.10097624077414, 39.59517051793977]}}, {"type": "Feature", "properties": {"norad_id": 31598, "name": "COSMO-SKYMED 1", "group": "resource", "lat": -42.67574778378538, "lon": -21.372382266564575, "alt_km": 587.5544085687716, "timestamp": "2025-12-06T14:35:36.783987+00:00", "meta": {"OBJECT_NAME": "COSMO-SKYMED 1", "OBJECT_ID": "2007-023A", "EPOCH": "2025-12-06T05:34:16.457952", "MEAN_MOTION": 14.95693053, "ECCENTRICITY": 0.00011841, "INCLINATION": 97.8836, "RA_OF_ASC_NODE": 165.5893, "ARG_OF_PERICENTER": 78.4575, "MEAN_ANOMALY": 281.6778, "EPHEMERIS_TYPE": 0, "CLASSIFICATION_TYPE": "U", "NORAD_CAT_ID": 31598, "ELEMENT_SET_NO": 999, "REV_AT_EPOCH": 93, "BSTAR": 0.000579071, "MEAN_MOTION_DOT": 6.388e-05, "MEAN_MOTION_DDOT": 0}, "tle": {"line1": "1 31598U 07023A   25340.23213493  .00006388  00000+0  57907-3 0  9994", "line2": "2 31598  97.8836 165.5893 0001184  78.4575 281.6778 14.95693053   932"}}, "geometry": {"type": "Point", "coordinates": [-21.372382266564575, -42.67574778378538]}}, {"type": "Feature", "properties": {"norad_id": 31698, "name": "TERRASAR-X", "group": "resource", "lat": 79.73394490987364, "lon": -60.13805630357725, "alt_km": 499.72707051996167, "timestamp": "2025-12-06T14:35:36.783998+00:00", "meta": {"OBJECT_NAME": "TERRASAR-X", "OBJECT_ID": "2007-026A", "EPOCH": "2025-12-05T14:31:03.290880", "MEAN_MOTION": 15.19155481, "ECCENTRICITY": 0.00018634, "INCLINATION": 97.4446, "RA_OF_ASC_NODE": 345.0897, "ARG_OF_PERICENTER": 81.8163, "MEAN_ANOMALY": 278.3283, "EPHEMERIS_TYPE": 0, "CLASSIFICATION_TYPE": "U", "NORAD_CAT_ID": 31698, "ELEMENT_SET_NO": 999, "REV_AT_EPOCH": 2383, "BSTAR": 0.00015422933, "MEAN_MOTION_DOT": 3.174e-05, "MEAN_MOTION_DDOT": 0}, "tle": {"line1": "1 31698U 07026A   25339.60489920  .00003174  00000+0  15423-3 0  9994", "line2": "2 31698  97.4446 345.0897 0001863  81.8163 278.3283 15.19155481 23833"}}, "geometry": {"type": "Point", "coordinates": [-60.13805630357725, 79.73394490987364]}}, {"type": "Feature", "properties": {"norad_id": 32060, "name": "WORLDVIEW-1 (WV-1)", "group": "resource", "lat": -35.86264261170307, "lon": 103.55599857930369, "alt_km": 498.9083483834065, "timestamp": "2025-12-06T14:35:36.784009+00:00", "meta": {"OBJECT_NAME": "WORLDVIEW-1 (WV-1)", "OBJECT_ID": "2007-041A", "EPOCH": "2025-12-06T05:18:01.806336", "MEAN_MOTION": 15.24526968, "ECCENTRICITY": 7.11e-05, "INCLINATION": 97.3845, "RA_OF_ASC_NODE": 97.7948, "ARG_OF_PERICENTER": 101.3925, "MEAN_ANOMALY": 258.7393, "EPHEMERIS_TYPE": 0, "CLASSIFICATION_TYPE": "U", "NORAD_CAT_ID": 32060, "ELEMENT_SET_NO": 999, "REV_AT_EPOCH": 1348, "BSTAR": 0.00059965608, "MEAN_MOTION_DOT": 0.00014699, "MEAN_MOTION_DDOT": 0}, "tle": {"line1": "1 32060U 07041A   25340.22085424  .00014699  00000+0  59966-3 0  9990", "line2": "2 32060  97.3845  97.7948 0000711 101.3925 258.7393 15.24526968 13484"}}, "geometry": {"type": "Point", "coordinates": [103.55599857930369, -35.86264261170307]}}]}